{
  "type": "FeatureCollection",
  "features": [
    {
      "type": "Feature",
      "properties": {
        "norad_id": 37484,
        "name": "COSMOS 2251 DEB",
        "group": "cosmos-2251-debris",
        "lat": 30.634719099691793,
        "lon": -133.06407593099019,
        "alt_km": 772.4342118889062,
        "timestamp": "2025-12-08T03:50:07.393757+00:00",
        "meta_object_name": "COSMOS 2251 DEB",
        "meta_object_id": "1993-036BLM",
        "meta_epoch": "2025-12-06T08:56:33.254304",
        "meta_mean_motion": 14.41742642,
        "meta_eccentricity": 0.00400909,
        "meta_inclination": 73.8227,
        "meta_ra_of_asc_node": 220.3904,
        "meta_arg_of_pericenter": 256.1563,
        "meta_mean_anomaly": 223.2643,
        "meta_ephemeris_type": 0,
        "meta_classification_type": "U",
        "meta_norad_cat_id": 37484,
        "meta_element_set_no": 999,
        "meta_rev_at_epoch": 65287,
        "meta_bstar": 0.0013292575,
        "meta_mean_motion_dot": 4.354e-05,
        "meta_mean_motion_ddot": 0,
        "tle_line1": "1 37484U 93036BLM 25340.37260711  .00004354  00000+0  13293-2 0  9993",
        "tle_line2": "2 37484  73.8227 220.3904 0040090 256.1563 223.2643 14.41742642652873"
      },
      "geometry": {
        "type": "Point",
        "coordinates": [
          -133.06407593099019,
          30.634719099691793
        ]
      }
    },
    {
      "type": "Feature",
      "properties": {
        "norad_id": 37486,
        "name": "COSMOS 2251 DEB",
        "group": "cosmos-2251-debris",
        "lat": 39.78580095088088,
        "lon": 136.991443733001,
        "alt_km": 736.4758183939248,
        "timestamp": "2025-12-08T03:50:07.393767+00:00",
        "meta_object_name": "COSMOS 2251 DEB",
        "meta_object_id": "1993-036BLP",
        "meta_epoch": "2025-12-07T02:42:27.056160",
        "meta_mean_motion": 14.1325012,
        "meta_eccentricity": 0.02291574,
        "meta_inclination": 73.6904,
        "meta_ra_of_asc_node": 124.7715,
        "meta_arg_of_pericenter": 353.7745,
        "meta_mean_anomaly": 121.3537,
        "meta_ephemeris_type": 0,
        "meta_classification_type": "U",
        "meta_norad_cat_id": 37486,
        "meta_element_set_no": 999,
        "meta_rev_at_epoch": 63290,
        "meta_bstar": 0.0027844399,
        "meta_mean_motion_dot": 6.678e-05,
        "meta_mean_motion_ddot": 0,
        "tle_line1": "1 37486U 93036BLP 25341.11281315  .00006678  00000+0  27844-2 0  9999",
        "tle_line2": "2 37486  73.6904 124.7715 0229157 353.7745 121.3537 14.13250120632907"
      },
      "geometry": {
        "type": "Point",
        "coordinates": [
          136.991443733001,
          39.78580095088088
        ]
      }
    },
    {
      "type": "Feature",
      "properties": {
        "norad_id": 37487,
        "name": "COSMOS 2251 DEB",
        "group": "cosmos-2251-debris",
        "lat": 70.91426681537658,
        "lon": -35.385337781476345,
        "alt_km": 610.9513982134249,
        "timestamp": "2025-12-08T03:50:07.393777+00:00",
        "meta_object_name": "COSMOS 2251 DEB",
        "meta_object_id": "1993-036BLQ",
        "meta_epoch": "2025-12-06T07:36:14.773824",
        "meta_mean_motion": 14.80609361,
        "meta_eccentricity": 0.00252454,
        "meta_inclination": 73.9019,
        "meta_ra_of_asc_node": 204.8571,
        "meta_arg_of_pericenter": 44.15,
        "meta_mean_anomaly": 316.1684,
        "meta_ephemeris_type": 0,
        "meta_classification_type": "U",
        "meta_norad_cat_id": 37487,
        "meta_element_set_no": 999,
        "meta_rev_at_epoch": 81150,
        "meta_bstar": 0.0050036629,
        "meta_mean_motion_dot": 0.00038806,
        "meta_mean_motion_ddot": 0,
        "tle_line1": "1 37487U 93036BLQ 25340.31683766  .00038806  00000+0  50037-2 0  9995",
        "tle_line2": "2 37487  73.9019 204.8571 0025245  44.1500 316.1684 14.80609361811501"
      },
      "geometry": {
        "type": "Point",
        "coordinates": [
          -35.385337781476345,
          70.91426681537658
        ]
      }
    },
    {
      "type": "Feature",
      "properties": {
        "norad_id": 37491,
        "name": "COSMOS 2251 DEB",
        "group": "cosmos-2251-debris",
        "lat": 23.13865418316996,
        "lon": 94.68734282601032,
        "alt_km": 1090.6694089879375,
        "timestamp": "2025-12-08T03:50:07.393787+00:00",
        "meta_object_name": "COSMOS 2251 DEB",
        "meta_object_id": "1993-036BLU",
        "meta_epoch": "2025-12-03T14:48:31.500000",
        "meta_mean_motion": 13.75236476,
        "meta_eccentricity": 0.03180692,
        "meta_inclination": 73.9058,
        "meta_ra_of_asc_node": 289.3863,
        "meta_arg_of_pericenter": 284.0782,
        "meta_mean_anomaly": 72.518,
        "meta_ephemeris_type": 0,
        "meta_classification_type": "U",
        "meta_norad_cat_id": 37491,
        "meta_element_set_no": 999,
        "meta_rev_at_epoch": 55621,
        "meta_bstar": 0.0021635807,
        "meta_mean_motion_dot": 2.973e-05,
        "meta_mean_motion_ddot": 0,
        "tle_line1": "1 37491U 93036BLU 25337.61703125  .00002973  00000+0  21636-2 0  9990",
        "tle_line2": "2 37491  73.9058 289.3863 0318069 284.0782  72.5180 13.75236476556211"
      },
      "geometry": {
        "type": "Point",
        "coordinates": [
          94.68734282601032,
          23.13865418316996
        ]
      }
    },
    {
      "type": "Feature",
      "properties": {
        "norad_id": 37498,
        "name": "COSMOS 2251 DEB",
        "group": "cosmos-2251-debris",
        "lat": -21.859573950788825,
        "lon": -174.03588770662938,
        "alt_km": 714.4054588964846,
        "timestamp": "2025-12-08T03:50:07.393797+00:00",
        "meta_object_name": "COSMOS 2251 DEB",
        "meta_object_id": "1993-036BMB",
        "meta_epoch": "2025-12-02T07:38:53.705760",
        "meta_mean_motion": 14.54689112,
        "meta_eccentricity": 0.00134342,
        "meta_inclination": 74.038,
        "meta_ra_of_asc_node": 203.6034,
        "meta_arg_of_pericenter": 264.7495,
        "meta_mean_anomaly": 95.2135,
        "meta_ephemeris_type": 0,
        "meta_classification_type": "U",
        "meta_norad_cat_id": 37498,
        "meta_element_set_no": 999,
        "meta_rev_at_epoch": 65203,
        "meta_bstar": 0.00080152077,
        "meta_mean_motion_dot": 3.406e-05,
        "meta_mean_motion_ddot": 0,
        "tle_line1": "1 37498U 93036BMB 25336.31867715  .00003406  00000+0  80152-3 0  9990",
        "tle_line2": "2 37498  74.0380 203.6034 0013434 264.7495  95.2135 14.54689112652037"
      },
      "geometry": {
        "type": "Point",
        "coordinates": [
          -174.03588770662938,
          -21.859573950788825
        ]
      }
    },
    {
      "type": "Feature",
      "properties": {
        "norad_id": 37499,
        "name": "COSMOS 2251 DEB",
        "group": "cosmos-2251-debris",
        "lat": 13.319744725980605,
        "lon": 146.69186536676193,
        "alt_km": 786.8847596334099,
        "timestamp": "2025-12-08T03:50:07.393807+00:00",
        "meta_object_name": "COSMOS 2251 DEB",
        "meta_object_id": "1993-036BMC",
        "meta_epoch": "2025-12-05T06:26:07.747872",
        "meta_mean_motion": 14.34331053,
        "meta_eccentricity": 0.00266878,
        "meta_inclination": 74.0375,
        "meta_ra_of_asc_node": 335.869,
        "meta_arg_of_pericenter": 54.1527,
        "meta_mean_anomaly": 306.2098,
        "meta_ephemeris_type": 0,
        "meta_classification_type": "U",
        "meta_norad_cat_id": 37499,
        "meta_element_set_no": 999,
        "meta_rev_at_epoch": 85042,
        "meta_bstar": 0.00027954752,
        "meta_mean_motion_dot": 7.63e-06,
        "meta_mean_motion_ddot": 0,
        "tle_line1": "1 37499U 93036BMC 25339.26814523  .00000763  00000+0  27955-3 0  9992",
        "tle_line2": "2 37499  74.0375 335.8690 0026687  54.1527 306.2098 14.34331053850421"
      },
      "geometry": {
        "type": "Point",
        "coordinates": [
          146.69186536676193,
          13.319744725980605
        ]
      }
    },
    {
      "type": "Feature",
      "properties": {
        "norad_id": 37528,
        "name": "COSMOS 2251 DEB",
        "group": "cosmos-2251-debris",
        "lat": 52.084770829631694,
        "lon": 152.30629299383457,
        "alt_km": 729.5503713007902,
        "timestamp": "2025-12-08T03:50:07.393817+00:00",
        "meta_object_name": "COSMOS 2251 DEB",
        "meta_object_id": "1993-036BNH",
        "meta_epoch": "2025-12-06T16:49:14.647872",
        "meta_mean_motion": 14.5048578,
        "meta_eccentricity": 0.00209458,
        "meta_inclination": 74.0353,
        "meta_ra_of_asc_node": 133.4841,
        "meta_arg_of_pericenter": 282.1287,
        "meta_mean_anomaly": 77.7527,
        "meta_ephemeris_type": 0,
        "meta_classification_type": "U",
        "meta_norad_cat_id": 37528,
        "meta_element_set_no": 999,
        "meta_rev_at_epoch": 85843,
        "meta_bstar": 0.00085302244,
        "meta_mean_motion_dot": 3.32e-05,
        "meta_mean_motion_ddot": 0,
        "tle_line1": "1 37528U 93036BNH 25340.70086398  .00003320  00000+0  85302-3 0  9999",
        "tle_line2": "2 37528  74.0353 133.4841 0020945 282.1287  77.7527 14.50485780858438"
      },
      "geometry": {
        "type": "Point",
        "coordinates": [
          152.30629299383457,
          52.084770829631694
        ]
      }
    }
  ]
}